[{"OBJECT_NAME":"STARLINK-31603","OBJECT_ID":"2024-046A","EPOCH":"2026-03-09T11:32:29.368608","MEAN_MOTION":15.30195025,"ECCENTRICITY":0.00019077,"INCLINATION":53.1597,"RA_OF_ASC_NODE":156.5924,"ARG_OF_PERICENTER":78.3131,"MEAN_ANOMALY":281.8084,"EPHEMERIS_TYPE":0,"CLASSIFICATION_TYPE":"U","NORAD_CAT_ID":59201,"ELEMENT_SET_NO":999,"REV_AT_EPOCH":11301,"BSTAR":-0.00014927482,"MEAN_MOTION_DOT":-4.777e-5,"MEAN_MOTION_DDOT":0},{"OBJECT_NAME":"TOMORROW-S4","OBJECT_ID":"2024-247K","EPOCH":"2026-03-09T12:47:35.836224","MEAN_MOTION":15.27717249,"ECCENTRICITY":0.00044343,"INCLINATION":44.9818,"RA_OF_ASC_NODE":117.9996,"ARG_OF_PERICENTER":210.4078,"MEAN_ANOMALY":149.6548,"EPHEMERIS_TYPE":0,"CLASSIFICATION_TYPE":"U","NORAD_CAT_ID":62386,"ELEMENT_SET_NO":999,"REV_AT_EPOCH":6770,"BSTAR":0.00046927249,"MEAN_MOTION_DOT":0.00012677,"MEAN_MOTION_DDOT":0}]
