STARLINK-31603          
1 59201U 24046A   26068.48089547 -.00004777  00000+0 -14927-3 0  9992
2 59201  53.1597 156.5924 0001907  78.3131 281.8084 15.30195025113019
TOMORROW-S4             
1 62386U 24247K   26068.53305366  .00012677  00000+0  46927-3 0  9990
2 62386  44.9818 117.9996 0004434 210.4078 149.6548 15.27717249 67702
